COSMOS 2529 (757)       
1 43687U 18086A   26058.37448306  .00000008  00000+0  00000+0 0  9993
2 43687  64.2955 196.2992 0007959 253.0448 106.8346  2.13101880 56941
BEIDOU-3 M17 (C36)      
1 43706U 18093A   26061.46828306 -.00000026  00000+0  00000+0 0  9990
2 43706  54.1714 185.9163 0006994 297.4131  70.7484  1.86228347 49556
BEIDOU-3 M18 (C37)      
1 43707U 18093B   26061.31825568 -.00000028  00000+0  00000+0 0  9994
2 43707  54.1724 185.9133 0006020 341.6195  18.3110  1.86226384 49549
GPS BIII-1  (PRN 04)    
1 43873U 18109A   26061.55588921  .00000022  00000+0  00000+0 0  9994
2 43873  55.6138  96.3922 0037879 198.2365 334.0151  2.00556616 52931
COSMOS 2534 (758)       
1 44299U 19030A   26061.72326789 -.00000011  00000+0  00000+0 0  9991
2 44299  64.3689 196.1982 0009573 280.1731 263.2524  2.13102170 52657
BEIDOU-3 IGSO-2 (C39)   
1 44337U 19035A   26057.68879618 -.00000176  00000+0  00000+0 0  9995
2 44337  55.2338 159.8353 0038734 206.4752 153.7223  1.00247364 24561
GPS BIII-2  (PRN 18)    
1 44506U 19056A   26061.19407716 -.00000097  00000+0  00000+0 0  9995
2 44506  55.6857 335.3972 0058018 198.2061 333.0166  2.00568128 47924
BEIDOU-3 M24 (C46)      
1 44542U 19061A   26061.38826417 -.00000027  00000+0  00000+0 0  9998
2 44542  54.3994 186.3291 0008611  21.3330 338.6547  1.86228769 43803
BEIDOU-3 M23 (C45)      
1 44543U 19061B   26061.53276793 -.00000026  00000+0  00000+0 0  9991
2 44543  54.3977 186.2925 0005086  14.2516 354.8811  1.86227187 43816
BEIDOU-3 IGSO-3 (C40)   
1 44709U 19073A   26061.00781069 -.00000149  00000+0  00000+0 0  9993
2 44709  54.9822 282.0561 0040437 189.0682 170.9277  1.00270082 23381
BEIDOU-3 M22 (C44)      
1 44793U 19078A   26059.07985671 -.00000039  00000+0  00000+0 0  9998
2 44793  54.0347 303.6688 0007221  34.9561 325.1493  1.86231871 42613
BEIDOU-3 M21 (C43)      
1 44794U 19078B   26061.36718642 -.00000049  00000+0  00000+0 0  9997
2 44794  54.0055 303.5509 0005915  39.6239 320.4796  1.86227509 42665
COSMOS 2544 (759)       
1 44850U 19088A   26060.09921565  .00000041  00000+0  00000+0 0  9991
2 44850  65.5037  77.3374 0015747 259.2375 100.6416  2.13101810 48419
